FENGYUN 3A              
1 32958U 08026A   26198.84856578  .00000019  00000+0  29377-4 0  9991
2 32958  98.6886 139.1091 0009573  45.0358 315.1593 14.19576787939752
EWS-G3 (GOES 14)        
1 35491U 09033A   26198.93387412 -.00000369  00000+0  00000+0 0  9997
2 35491   1.7672  82.6590 0002022  39.6458 272.9884  1.00096891  6895
EWS-G2 (GOES 15)        
1 36411U 10008A   26198.92200073  .00000013  00000+0  00000+0 0  9995
2 36411   1.3604  82.4294 0005329  53.9198 194.5823  1.00268981 59948
FENGYUN 3B              
1 37214U 10059A   26199.00614825 -.00000016  00000+0  14944-4 0  9998
2 37214  98.9599 245.1487 0023175  98.9820  15.8292 14.14846780811788
EXACTVIEW-1 (ADS-1B)    
1 38709U 12039C   26198.85474782  .00000037  00000+0  35638-4 0  9991
2 38709  98.9808 316.9419 0011946  84.6148 275.6393 14.24992623727076
DUBAISAT-2              
1 39419U 13066D   26198.94524631  .00001438  00000+0  91374-4 0  9995
2 39419  97.4580 188.2902 0009169 292.4360  67.5899 15.10384818691034
FENGYUN 2G              
1 40367U 14090A   26198.96508066 -.00000313  00000+0  00000+0 0  9996
2 40367   5.7148  72.4427 0004132 173.7948 136.3644  1.00279731 42308
ELEKTRO-L 2             
1 41105U 15074A   26198.90664448 -.00000129  00000+0  00000+0 0  9996
2 41105   6.7694  70.1443 0000976 217.4447 320.0214  1.00272057 38811
FENGYUN 2H              
1 43491U 18050A   26198.78258541 -.00000136  00000+0  00000+0 0  9990
2 43491   3.1082  78.7148 0002256 133.6408  84.0592  1.00266917 29744
EOS-4                   
1 51656U 22013A   26198.99004616  .00000687  00000+0  42867-4 0  9993
2 51656  97.5113 205.1689 0002122  89.2192 270.9282 15.12726869244142
