{
 "generated_at": "2026-07-18T07:00:39Z",
 "sources": [
  {
   "name": "CelesTrak",
   "url": "https://celestrak.org/NORAD/elements/",
   "license": "frei verfügbar; Attribution. Ursprünglich USSPACECOM/Space-Track."
  },
  {
   "name": "GCAT (J. McDowell, planet4589.org)",
   "url": "https://planet4589.org/space/gcat/",
   "license": "CC-BY 4.0"
  }
 ],
 "satellites": [
  {
   "norad": 39419,
   "name": "DUBAISAT-2",
   "intl": "2013-066D",
   "group": "resource",
   "gcat": {
    "class": "C",
    "category": "IMG",
    "owner": "EIAST",
    "state": "UAE"
   },
   "omm": {
    "OBJECT_NAME": "DUBAISAT-2",
    "OBJECT_ID": "2013-066D",
    "EPOCH": "2026-07-17T22:41:09.281184",
    "MEAN_MOTION": 15.10384818,
    "ECCENTRICITY": 0.00091699,
    "INCLINATION": 97.458,
    "RA_OF_ASC_NODE": 188.2902,
    "ARG_OF_PERICENTER": 292.436,
    "MEAN_ANOMALY": 67.5899,
    "EPHEMERIS_TYPE": 0,
    "CLASSIFICATION_TYPE": "U",
    "NORAD_CAT_ID": 39419,
    "ELEMENT_SET_NO": 999,
    "REV_AT_EPOCH": 69103,
    "BSTAR": 0.000091374053,
    "MEAN_MOTION_DOT": 0.00001438,
    "MEAN_MOTION_DDOT": 0
   }
  },
  {
   "norad": 41105,
   "name": "ELEKTRO-L 2",
   "intl": "2015-074A",
   "group": "weather",
   "gcat": {
    "class": "C",
    "category": "MET",
    "owner": "RGMS/NPOLO",
    "state": "RU"
   },
   "omm": {
    "OBJECT_NAME": "ELEKTRO-L 2",
    "OBJECT_ID": "2015-074A",
    "EPOCH": "2026-07-17T21:45:34.083072",
    "MEAN_MOTION": 1.00272057,
    "ECCENTRICITY": 0.00009763,
    "INCLINATION": 6.7694,
    "RA_OF_ASC_NODE": 70.1443,
    "ARG_OF_PERICENTER": 217.4447,
    "MEAN_ANOMALY": 320.0214,
    "EPHEMERIS_TYPE": 0,
    "CLASSIFICATION_TYPE": "U",
    "NORAD_CAT_ID": 41105,
    "ELEMENT_SET_NO": 999,
    "REV_AT_EPOCH": 3881,
    "BSTAR": 0,
    "MEAN_MOTION_DOT": -0.00000129,
    "MEAN_MOTION_DDOT": 0
   }
  },
  {
   "norad": 51656,
   "name": "EOS-4",
   "intl": "2022-013A",
   "group": "sar",
   "gcat": {
    "class": "C",
    "category": "IMG-R",
    "owner": "ISRO",
    "state": "IN"
   },
   "omm": {
    "OBJECT_NAME": "EOS-4",
    "OBJECT_ID": "2022-013A",
    "EPOCH": "2026-07-17T23:45:39.988224",
    "MEAN_MOTION": 15.12726869,
    "ECCENTRICITY": 0.00021227,
    "INCLINATION": 97.5113,
    "RA_OF_ASC_NODE": 205.1689,
    "ARG_OF_PERICENTER": 89.2192,
    "MEAN_ANOMALY": 270.9282,
    "EPHEMERIS_TYPE": 0,
    "CLASSIFICATION_TYPE": "U",
    "NORAD_CAT_ID": 51656,
    "ELEMENT_SET_NO": 999,
    "REV_AT_EPOCH": 24414,
    "BSTAR": 0.000042867056,
    "MEAN_MOTION_DOT": 0.00000687,
    "MEAN_MOTION_DDOT": 0
   }
  },
  {
   "norad": 36411,
   "name": "EWS-G2 (GOES 15)",
   "intl": "2010-008A",
   "group": "weather",
   "gcat": {
    "class": "C",
    "category": "MET",
    "owner": "NOAA",
    "state": "US"
   },
   "omm": {
    "OBJECT_NAME": "EWS-G2 (GOES 15)",
    "OBJECT_ID": "2010-008A",
    "EPOCH": "2026-07-17T22:07:40.863072",
    "MEAN_MOTION": 1.00268981,
    "ECCENTRICITY": 0.00053292,
    "INCLINATION": 1.3604,
    "RA_OF_ASC_NODE": 82.4294,
    "ARG_OF_PERICENTER": 53.9198,
    "MEAN_ANOMALY": 194.5823,
    "EPHEMERIS_TYPE": 0,
    "CLASSIFICATION_TYPE": "U",
    "NORAD_CAT_ID": 36411,
    "ELEMENT_SET_NO": 999,
    "REV_AT_EPOCH": 5994,
    "BSTAR": 0,
    "MEAN_MOTION_DOT": 1.3e-7,
    "MEAN_MOTION_DDOT": 0
   }
  },
  {
   "norad": 35491,
   "name": "EWS-G3 (GOES 14)",
   "intl": "2009-033A",
   "group": "weather",
   "gcat": {
    "class": "C",
    "category": "MET",
    "owner": "NOAA",
    "state": "US"
   },
   "omm": {
    "OBJECT_NAME": "EWS-G3 (GOES 14)",
    "OBJECT_ID": "2009-033A",
    "EPOCH": "2026-07-17T22:24:46.723968",
    "MEAN_MOTION": 1.00096891,
    "ECCENTRICITY": 0.00020228,
    "INCLINATION": 1.7672,
    "RA_OF_ASC_NODE": 82.659,
    "ARG_OF_PERICENTER": 39.6458,
    "MEAN_ANOMALY": 272.9884,
    "EPHEMERIS_TYPE": 0,
    "CLASSIFICATION_TYPE": "U",
    "NORAD_CAT_ID": 35491,
    "ELEMENT_SET_NO": 999,
    "REV_AT_EPOCH": 689,
    "BSTAR": 0,
    "MEAN_MOTION_DOT": -0.00000369,
    "MEAN_MOTION_DDOT": 0
   }
  },
  {
   "norad": 38709,
   "name": "EXACTVIEW-1 (ADS-1B)",
   "intl": "2012-039C",
   "group": "resource",
   "gcat": {
    "class": "B",
    "category": "COM",
    "owner": "EXEA",
    "state": "CA"
   },
   "omm": {
    "OBJECT_NAME": "EXACTVIEW-1 (ADS-1B)",
    "OBJECT_ID": "2012-039C",
    "EPOCH": "2026-07-17T20:30:50.211648",
    "MEAN_MOTION": 14.24992623,
    "ECCENTRICITY": 0.00119466,
    "INCLINATION": 98.9808,
    "RA_OF_ASC_NODE": 316.9419,
    "ARG_OF_PERICENTER": 84.6148,
    "MEAN_ANOMALY": 275.6393,
    "EPHEMERIS_TYPE": 0,
    "CLASSIFICATION_TYPE": "U",
    "NORAD_CAT_ID": 38709,
    "ELEMENT_SET_NO": 999,
    "REV_AT_EPOCH": 72707,
    "BSTAR": 0.000035638402,
    "MEAN_MOTION_DOT": 3.7e-7,
    "MEAN_MOTION_DDOT": 0
   }
  },
  {
   "norad": 40367,
   "name": "FENGYUN 2G",
   "intl": "2014-090A",
   "group": "weather",
   "gcat": {
    "class": "C",
    "category": "MET",
    "owner": "NSMC",
    "state": "CN"
   },
   "omm": {
    "OBJECT_NAME": "FENGYUN 2G",
    "OBJECT_ID": "2014-090A",
    "EPOCH": "2026-07-17T23:09:42.969024",
    "MEAN_MOTION": 1.00279731,
    "ECCENTRICITY": 0.00041328,
    "INCLINATION": 5.7148,
    "RA_OF_ASC_NODE": 72.4427,
    "ARG_OF_PERICENTER": 173.7948,
    "MEAN_ANOMALY": 136.3644,
    "EPHEMERIS_TYPE": 0,
    "CLASSIFICATION_TYPE": "U",
    "NORAD_CAT_ID": 40367,
    "ELEMENT_SET_NO": 999,
    "REV_AT_EPOCH": 4230,
    "BSTAR": 0,
    "MEAN_MOTION_DOT": -0.00000313,
    "MEAN_MOTION_DDOT": 0
   }
  },
  {
   "norad": 43491,
   "name": "FENGYUN 2H",
   "intl": "2018-050A",
   "group": "weather",
   "gcat": {
    "class": "C",
    "category": "MET",
    "owner": "NSMC",
    "state": "CN"
   },
   "omm": {
    "OBJECT_NAME": "FENGYUN 2H",
    "OBJECT_ID": "2018-050A",
    "EPOCH": "2026-07-17T18:46:55.379424",
    "MEAN_MOTION": 1.00266917,
    "ECCENTRICITY": 0.0002256,
    "INCLINATION": 3.1082,
    "RA_OF_ASC_NODE": 78.7148,
    "ARG_OF_PERICENTER": 133.6408,
    "MEAN_ANOMALY": 84.0592,
    "EPHEMERIS_TYPE": 0,
    "CLASSIFICATION_TYPE": "U",
    "NORAD_CAT_ID": 43491,
    "ELEMENT_SET_NO": 999,
    "REV_AT_EPOCH": 2974,
    "BSTAR": 0,
    "MEAN_MOTION_DOT": -0.00000136,
    "MEAN_MOTION_DDOT": 0
   }
  },
  {
   "norad": 32958,
   "name": "FENGYUN 3A",
   "intl": "2008-026A",
   "group": "weather",
   "gcat": {
    "class": null,
    "category": null,
    "owner": null,
    "state": null
   },
   "omm": {
    "OBJECT_NAME": "FENGYUN 3A",
    "OBJECT_ID": "2008-026A",
    "EPOCH": "2026-07-17T20:21:56.083392",
    "MEAN_MOTION": 14.19576787,
    "ECCENTRICITY": 0.00095735,
    "INCLINATION": 98.6886,
    "RA_OF_ASC_NODE": 139.1091,
    "ARG_OF_PERICENTER": 45.0358,
    "MEAN_ANOMALY": 315.1593,
    "EPHEMERIS_TYPE": 0,
    "CLASSIFICATION_TYPE": "U",
    "NORAD_CAT_ID": 32958,
    "ELEMENT_SET_NO": 999,
    "REV_AT_EPOCH": 93975,
    "BSTAR": 0.000029376717,
    "MEAN_MOTION_DOT": 1.9e-7,
    "MEAN_MOTION_DDOT": 0
   }
  },
  {
   "norad": 37214,
   "name": "FENGYUN 3B",
   "intl": "2010-059A",
   "group": "weather",
   "gcat": {
    "class": null,
    "category": null,
    "owner": null,
    "state": null
   },
   "omm": {
    "OBJECT_NAME": "FENGYUN 3B",
    "OBJECT_ID": "2010-059A",
    "EPOCH": "2026-07-18T00:08:51.208800",
    "MEAN_MOTION": 14.1484678,
    "ECCENTRICITY": 0.0023175,
    "INCLINATION": 98.9599,
    "RA_OF_ASC_NODE": 245.1487,
    "ARG_OF_PERICENTER": 98.982,
    "MEAN_ANOMALY": 15.8292,
    "EPHEMERIS_TYPE": 0,
    "CLASSIFICATION_TYPE": "U",
    "NORAD_CAT_ID": 37214,
    "ELEMENT_SET_NO": 999,
    "REV_AT_EPOCH": 81178,
    "BSTAR": 0.000014944209,
    "MEAN_MOTION_DOT": -1.6e-7,
    "MEAN_MOTION_DDOT": 0
   }
  }
 ]
}
